{
  "type": "FeatureCollection",
  "generator": "overpass-turbo",
  "copyright": "The data included in this document is from www.openstreetmap.org. The data is made available under ODbL.",
  "timestamp": "2025-01-13T17:39:06Z",
  "features": [
    {
      "type": "Feature",
      "properties": {
        "@id": "relation/12656118",
        "admin_level": "9",
        "boundary": "administrative",
        "name": "Abalo",
        "place": "civil_parish",
        "population": "465",
        "population:date": "2023",
        "ref:ine": "36010010000",
        "type": "boundary",
        "wikidata": "Q3397128",
        "wikipedia": "gl:Abalo, Catoira"
      },
      "geometry": {
        "type": "Polygon",
        "coordinates": [
          [
            [
              -8.7257999,
              42.6264364
            ],
            [
              -8.7257998,
              42.6264361
            ],
            [
              -8.7239766,
              42.6266266
            ],
            [
              -8.7225839,
              42.6268584
            ],
            [
              -8.7183177,
              42.6277923
            ],
            [
              -8.7162793,
              42.6301539
            ],
            [
              -8.7155182,
              42.630363
            ],
            [
              -8.7123777,
              42.6305472
            ],
            [
              -8.7090411,
              42.6323164
            ],
            [
              -8.7063502,
              42.6330181
            ],
            [
              -8.701867,
              42.6325218
            ],
            [
              -8.7001376,
              42.6322751
            ],
            [
              -8.6991677,
              42.6318014
            ],
            [
              -8.6997874,
              42.6333884
            ],
            [
              -8.7001859,
              42.6342089
            ],
            [
              -8.7018894,
              42.6352843
            ],
            [
              -8.7056064,
              42.6363393
            ],
            [
              -8.7069182,
              42.6371883
            ],
            [
              -8.707477,
              42.6375315
            ],
            [
              -8.7073035,
              42.6381607
            ],
            [
              -8.7064693,
              42.6393819
            ],
            [
              -8.7061227,
              42.6405324
            ],
            [
              -8.707019,
              42.6416681
            ],
            [
              -8.7085968,
              42.6429674
            ],
            [
              -8.7120685,
              42.6457827
            ],
            [
              -8.7131105,
              42.6470627
            ],
            [
              -8.7146931,
              42.6490424
            ],
            [
              -8.7151375,
              42.6514574
            ],
            [
              -8.7161429,
              42.652162
            ],
            [
              -8.7209686,
              42.6554836
            ],
            [
              -8.723522,
              42.656785
            ],
            [
              -8.72688,
              42.6580524
            ],
            [
              -8.7291914,
              42.6590114
            ],
            [
              -8.7314532,
              42.6601681
            ],
            [
              -8.7371552,
              42.6621036
            ],
            [
              -8.7372527,
              42.6621413
            ],
            [
              -8.737568,
              42.66191
            ],
            [
              -8.737917,
              42.661654
            ],
            [
              -8.738266,
              42.661399
            ],
            [
              -8.738615,
              42.661143
            ],
            [
              -8.739311,
              42.661016
            ],
            [
              -8.739141,
              42.660246
            ],
            [
              -8.739148,
              42.658449
            ],
            [
              -8.739497,
              42.658194
            ],
            [
              -8.739853,
              42.656141
            ],
            [
              -8.7399833,
              42.6558684
            ],
            [
              -8.7402408,
              42.6549531
            ],
            [
              -8.7403604,
              42.6545929
            ],
            [
              -8.740559,
              42.653576
            ],
            [
              -8.740912,
              42.652294
            ],
            [
              -8.741261,
              42.652038
            ],
            [
              -8.741264,
              42.651268
            ],
            [
              -8.7411059,
              42.6505536
            ],
            [
              -8.740923,
              42.649727
            ],
            [
              -8.740924,
              42.64947
            ],
            [
              -8.7411168,
              42.6491879
            ],
            [
              -8.741274,
              42.648958
            ],
            [
              -8.7416189,
              42.6484143
            ],
            [
              -8.7424268,
              42.6479152
            ],
            [
              -8.742671,
              42.647421
            ],
            [
              -8.74302,
              42.647165
            ],
            [
              -8.7432288,
              42.6470104
            ],
            [
              -8.7436386,
              42.6467476
            ],
            [
              -8.744066,
              42.646397
            ],
            [
              -8.7446171,
              42.6457134
            ],
            [
              -8.744937,
              42.645757
            ],
            [
              -8.745286,
              42.645501
            ],
            [
              -8.7456492,
              42.6450975
            ],
            [
              -8.7459003,
              42.6444713
            ],
            [
              -8.746334,
              42.64422
            ],
            [
              -8.746683,
              42.643965
            ],
            [
              -8.747031,
              42.643709
            ],
            [
              -8.74738,
              42.643453
            ],
            [
              -8.7474111,
              42.6434302
            ],
            [
              -8.7471375,
              42.6432602
            ],
            [
              -8.7468874,
              42.6431918
            ],
            [
              -8.7455095,
              42.6433241
            ],
            [
              -8.7451777,
              42.6432958
            ],
            [
              -8.7449501,
              42.6432082
            ],
            [
              -8.7447871,
              42.6430274
            ],
            [
              -8.7444324,
              42.642091
            ],
            [
              -8.7424172,
              42.6411301
            ],
            [
              -8.7403948,
              42.6385042
            ],
            [
              -8.7355915,
              42.636261
            ],
            [
              -8.7330428,
              42.6349307
            ],
            [
              -8.7315398,
              42.634232
            ],
            [
              -8.7299195,
              42.6311986
            ],
            [
              -8.7286321,
              42.6305568
            ],
            [
              -8.7272619,
              42.6298736
            ],
            [
              -8.7268105,
              42.628942
            ],
            [
              -8.7257999,
              42.6264364
            ]
          ]
        ]
      },
      "id": "relation/12656118"
    },
    {
      "type": "Feature",
      "properties": {
        "@id": "relation/12656119",
        "admin_level": "9",
        "boundary": "administrative",
        "name": "Catoira",
        "place": "civil_parish",
        "population": "1159",
        "population:date": "2023",
        "ref:ine": "36010020000",
        "type": "boundary",
        "wikidata": "Q12385821",
        "wikipedia": "gl:Catoira, Catoira"
      },
      "geometry": {
        "type": "Polygon",
        "coordinates": [
          [
            [
              -8.7314532,
              42.6601681
            ],
            [
              -8.7291914,
              42.6590114
            ],
            [
              -8.72688,
              42.6580524
            ],
            [
              -8.723522,
              42.656785
            ],
            [
              -8.7209686,
              42.6554836
            ],
            [
              -8.7161429,
              42.652162
            ],
            [
              -8.7151375,
              42.6514574
            ],
            [
              -8.7146931,
              42.6490424
            ],
            [
              -8.7131105,
              42.6470627
            ],
            [
              -8.7120685,
              42.6457827
            ],
            [
              -8.7085968,
              42.6429674
            ],
            [
              -8.707019,
              42.6416681
            ],
            [
              -8.7061227,
              42.6405324
            ],
            [
              -8.7064693,
              42.6393819
            ],
            [
              -8.7073035,
              42.6381607
            ],
            [
              -8.707477,
              42.6375315
            ],
            [
              -8.7069182,
              42.6371883
            ],
            [
              -8.7056064,
              42.6363393
            ],
            [
              -8.7018894,
              42.6352843
            ],
            [
              -8.7001859,
              42.6342089
            ],
            [
              -8.6997149,
              42.6353166
            ],
            [
              -8.6996372,
              42.6362699
            ],
            [
              -8.700169,
              42.6371528
            ],
            [
              -8.7011386,
              42.6381988
            ],
            [
              -8.7017198,
              42.6389559
            ],
            [
              -8.7022273,
              42.6398387
            ],
            [
              -8.7024433,
              42.6405229
            ],
            [
              -8.7025189,
              42.6411675
            ],
            [
              -8.7020284,
              42.6416975
            ],
            [
              -8.7017206,
              42.6423001
            ],
            [
              -8.7017193,
              42.6425703
            ],
            [
              -8.7021318,
              42.6430396
            ],
            [
              -8.7029884,
              42.6437446
            ],
            [
              -8.7033993,
              42.6444653
            ],
            [
              -8.7035157,
              42.645599
            ],
            [
              -8.7028282,
              42.6466946
            ],
            [
              -8.7020384,
              42.6472721
            ],
            [
              -8.7019153,
              42.6475149
            ],
            [
              -8.7016953,
              42.6475864
            ],
            [
              -8.7011082,
              42.6479181
            ],
            [
              -8.7007874,
              42.6486647
            ],
            [
              -8.7008696,
              42.6493313
            ],
            [
              -8.7015385,
              42.6497564
            ],
            [
              -8.7024765,
              42.650047
            ],
            [
              -8.70312,
              42.6506971
            ],
            [
              -8.7035573,
              42.6522375
            ],
            [
              -8.7051063,
              42.6545083
            ],
            [
              -8.7059761,
              42.6561297
            ],
            [
              -8.7074842,
              42.6567812
            ],
            [
              -8.7091887,
              42.6571453
            ],
            [
              -8.7110891,
              42.6572941
            ],
            [
              -8.7143154,
              42.6570367
            ],
            [
              -8.7153565,
              42.6571624
            ],
            [
              -8.7157919,
              42.6579903
            ],
            [
              -8.7151061,
              42.6587065
            ],
            [
              -8.7140247,
              42.6598531
            ],
            [
              -8.7139567,
              42.6599251
            ],
            [
              -8.7138824,
              42.6599413
            ],
            [
              -8.7125782,
              42.6601304
            ],
            [
              -8.7113805,
              42.6599761
            ],
            [
              -8.7095517,
              42.65989
            ],
            [
              -8.7068841,
              42.6604535
            ],
            [
              -8.7057851,
              42.6617507
            ],
            [
              -8.7056444,
              42.662522
            ],
            [
              -8.7049163,
              42.6637548
            ],
            [
              -8.7053507,
              42.6646914
            ],
            [
              -8.7078769,
              42.6666049
            ],
            [
              -8.7089253,
              42.6679873
            ],
            [
              -8.7091143,
              42.6688789
            ],
            [
              -8.7090996,
              42.6694403
            ],
            [
              -8.7091945,
              42.6698059
            ],
            [
              -8.7091678,
              42.6703494
            ],
            [
              -8.7099276,
              42.6705652
            ],
            [
              -8.7108149,
              42.6705907
            ],
            [
              -8.712638,
              42.6709348
            ],
            [
              -8.7157702,
              42.6713627
            ],
            [
              -8.717321,
              42.6712882
            ],
            [
              -8.718424,
              42.6711426
            ],
            [
              -8.7201437,
              42.671372
            ],
            [
              -8.7216762,
              42.6698087
            ],
            [
              -8.721982,
              42.6696474
            ],
            [
              -8.7222992,
              42.6693656
            ],
            [
              -8.7233418,
              42.6690858
            ],
            [
              -8.7245324,
              42.6689789
            ],
            [
              -8.7263807,
              42.6690931
            ],
            [
              -8.7279302,
              42.6695359
            ],
            [
              -8.7283986,
              42.6700582
            ],
            [
              -8.7287479,
              42.6702233
            ],
            [
              -8.7289143,
              42.6702953
            ],
            [
              -8.729364,
              42.669463
            ],
            [
              -8.7298322,
              42.6677821
            ],
            [
              -8.7287802,
              42.6677746
            ],
            [
              -8.728678,
              42.667152
            ],
            [
              -8.7288323,
              42.6668224
            ],
            [
              -8.7290938,
              42.6666015
            ],
            [
              -8.7292527,
              42.6663971
            ],
            [
              -8.7294077,
              42.6662199
            ],
            [
              -8.72939,
              42.6660941
            ],
            [
              -8.7297781,
              42.6659097
            ],
            [
              -8.730011,
              42.6658592
            ],
            [
              -8.7301962,
              42.6658919
            ],
            [
              -8.7303185,
              42.6657956
            ],
            [
              -8.7304401,
              42.6657687
            ],
            [
              -8.7308858,
              42.6654751
            ],
            [
              -8.730945,
              42.665488
            ],
            [
              -8.731404,
              42.665344
            ],
            [
              -8.731296,
              42.664848
            ],
            [
              -8.7320316,
              42.6646821
            ],
            [
              -8.7331158,
              42.6648482
            ],
            [
              -8.733731,
              42.664725
            ],
            [
              -8.7347364,
              42.6641283
            ],
            [
              -8.7346607,
              42.6639243
            ],
            [
              -8.7348018,
              42.6638052
            ],
            [
              -8.7343603,
              42.6635689
            ],
            [
              -8.7345202,
              42.6632466
            ],
            [
              -8.734956,
              42.66306
            ],
            [
              -8.735304,
              42.662804
            ],
            [
              -8.735479,
              42.662548
            ],
            [
              -8.736175,
              42.66242
            ],
            [
              -8.737219,
              42.662166
            ],
            [
              -8.7372527,
              42.6621413
            ],
            [
              -8.7371552,
              42.6621036
            ],
            [
              -8.7314532,
              42.6601681
            ]
          ]
        ]
      },
      "id": "relation/12656119"
    },
    {
      "type": "Feature",
      "properties": {
        "@id": "relation/12656120",
        "admin_level": "9",
        "boundary": "administrative",
        "name": "Dimo",
        "place": "civil_parish",
        "population": "927",
        "population:date": "2023",
        "ref:ine": "36010030000",
        "type": "boundary",
        "wikidata": "Q12387105",
        "wikipedia": "gl:Dimo, Catoira"
      },
      "geometry": {
        "type": "Polygon",
        "coordinates": [
          [
            [
              -8.6991677,
              42.6318014
            ],
            [
              -8.6978884,
              42.6330085
            ],
            [
              -8.6969173,
              42.6335881
            ],
            [
              -8.6963872,
              42.6341907
            ],
            [
              -8.6962047,
              42.6344608
            ],
            [
              -8.6958377,
              42.6347132
            ],
            [
              -8.6948374,
              42.6352402
            ],
            [
              -8.6907135,
              42.6370752
            ],
            [
              -8.6876997,
              42.6389177
            ],
            [
              -8.6866072,
              42.6396383
            ],
            [
              -8.6811443,
              42.6423048
            ],
            [
              -8.6801818,
              42.6451332
            ],
            [
              -8.679904,
              42.6459494
            ],
            [
              -8.6749209,
              42.6476015
            ],
            [
              -8.6726826,
              42.6499362
            ],
            [
              -8.672682,
              42.649937
            ],
            [
              -8.6695152,
              42.6545226
            ],
            [
              -8.6672797,
              42.6589006
            ],
            [
              -8.6660459,
              42.6607532
            ],
            [
              -8.6657759,
              42.6612707
            ],
            [
              -8.6670257,
              42.6638923
            ],
            [
              -8.6683796,
              42.6666868
            ],
            [
              -8.6695705,
              42.6695804
            ],
            [
              -8.6697885,
              42.6698306
            ],
            [
              -8.6698601,
              42.6702142
            ],
            [
              -8.6700612,
              42.6705463
            ],
            [
              -8.6705398,
              42.6707116
            ],
            [
              -8.6735903,
              42.6723244
            ],
            [
              -8.6746024,
              42.6723191
            ],
            [
              -8.677635,
              42.6727985
            ],
            [
              -8.6780125,
              42.6729238
            ],
            [
              -8.6786549,
              42.6732789
            ],
            [
              -8.6792669,
              42.6739687
            ],
            [
              -8.6804258,
              42.6750363
            ],
            [
              -8.6822087,
              42.6765229
            ],
            [
              -8.6860604,
              42.6794189
            ],
            [
              -8.6864098,
              42.6797706
            ],
            [
              -8.6875259,
              42.6814344
            ],
            [
              -8.687702,
              42.6817587
            ],
            [
              -8.6881816,
              42.6842747
            ],
            [
              -8.6883123,
              42.6849601
            ],
            [
              -8.6881362,
              42.6867692
            ],
            [
              -8.6920122,
              42.6881875
            ],
            [
              -8.6931398,
              42.6882994
            ],
            [
              -8.6927039,
              42.6873047
            ],
            [
              -8.693047,
              42.6870445
            ],
            [
              -8.6935854,
              42.6867757
            ],
            [
              -8.6942094,
              42.6864892
            ],
            [
              -8.694944,
              42.6860499
            ],
            [
              -8.6954355,
              42.6853938
            ],
            [
              -8.6956343,
              42.6846739
            ],
            [
              -8.6957595,
              42.6840348
            ],
            [
              -8.6968865,
              42.6832093
            ],
            [
              -8.697634,
              42.6826079
            ],
            [
              -8.6980012,
              42.6823927
            ],
            [
              -8.6987369,
              42.6816922
            ],
            [
              -8.6989954,
              42.6812426
            ],
            [
              -8.6993246,
              42.6813245
            ],
            [
              -8.7005703,
              42.6811837
            ],
            [
              -8.7016709,
              42.6807453
            ],
            [
              -8.7022464,
              42.6803685
            ],
            [
              -8.7028113,
              42.6796405
            ],
            [
              -8.7033058,
              42.678327
            ],
            [
              -8.7033165,
              42.6767071
            ],
            [
              -8.7033191,
              42.6763112
            ],
            [
              -8.7029482,
              42.674814
            ],
            [
              -8.7034359,
              42.673429
            ],
            [
              -8.7047113,
              42.6726039
            ],
            [
              -8.7059052,
              42.672066
            ],
            [
              -8.707007,
              42.6716208
            ],
            [
              -8.708588,
              42.671591
            ],
            [
              -8.7097887,
              42.6718747
            ],
            [
              -8.7117794,
              42.672263
            ],
            [
              -8.7122567,
              42.6715246
            ],
            [
              -8.712638,
              42.6709348
            ],
            [
              -8.7108149,
              42.6705907
            ],
            [
              -8.7099276,
              42.6705652
            ],
            [
              -8.7091678,
              42.6703494
            ],
            [
              -8.7091945,
              42.6698059
            ],
            [
              -8.7090996,
              42.6694403
            ],
            [
              -8.7091143,
              42.6688789
            ],
            [
              -8.7089253,
              42.6679873
            ],
            [
              -8.7078769,
              42.6666049
            ],
            [
              -8.7053507,
              42.6646914
            ],
            [
              -8.7049163,
              42.6637548
            ],
            [
              -8.7056444,
              42.662522
            ],
            [
              -8.7057851,
              42.6617507
            ],
            [
              -8.7068841,
              42.6604535
            ],
            [
              -8.7095517,
              42.65989
            ],
            [
              -8.7113805,
              42.6599761
            ],
            [
              -8.7125782,
              42.6601304
            ],
            [
              -8.7138824,
              42.6599413
            ],
            [
              -8.7139567,
              42.6599251
            ],
            [
              -8.7140247,
              42.6598531
            ],
            [
              -8.7151061,
              42.6587065
            ],
            [
              -8.7157919,
              42.6579903
            ],
            [
              -8.7153565,
              42.6571624
            ],
            [
              -8.7143154,
              42.6570367
            ],
            [
              -8.7110891,
              42.6572941
            ],
            [
              -8.7091887,
              42.6571453
            ],
            [
              -8.7074842,
              42.6567812
            ],
            [
              -8.7059761,
              42.6561297
            ],
            [
              -8.7051063,
              42.6545083
            ],
            [
              -8.7035573,
              42.6522375
            ],
            [
              -8.70312,
              42.6506971
            ],
            [
              -8.7024765,
              42.650047
            ],
            [
              -8.7015385,
              42.6497564
            ],
            [
              -8.7008696,
              42.6493313
            ],
            [
              -8.7007874,
              42.6486647
            ],
            [
              -8.7011082,
              42.6479181
            ],
            [
              -8.7016953,
              42.6475864
            ],
            [
              -8.7019153,
              42.6475149
            ],
            [
              -8.7020384,
              42.6472721
            ],
            [
              -8.7028282,
              42.6466946
            ],
            [
              -8.7035157,
              42.645599
            ],
            [
              -8.7033993,
              42.6444653
            ],
            [
              -8.7029884,
              42.6437446
            ],
            [
              -8.7021318,
              42.6430396
            ],
            [
              -8.7017193,
              42.6425703
            ],
            [
              -8.7017206,
              42.6423001
            ],
            [
              -8.7020284,
              42.6416975
            ],
            [
              -8.7025189,
              42.6411675
            ],
            [
              -8.7024433,
              42.6405229
            ],
            [
              -8.7022273,
              42.6398387
            ],
            [
              -8.7017198,
              42.6389559
            ],
            [
              -8.7011386,
              42.6381988
            ],
            [
              -8.700169,
              42.6371528
            ],
            [
              -8.6996372,
              42.6362699
            ],
            [
              -8.6997149,
              42.6353166
            ],
            [
              -8.7001859,
              42.6342089
            ],
            [
              -8.6997874,
              42.6333884
            ],
            [
              -8.6991677,
              42.6318014
            ]
          ]
        ]
      },
      "id": "relation/12656120"
    },
    {
      "type": "Feature",
      "properties": {
        "@id": "relation/12656121",
        "admin_level": "9",
        "boundary": "administrative",
        "name": "Oeste",
        "place": "civil_parish",
        "population": "738",
        "population:date": "2023",
        "ref:ine": "36010040000",
        "type": "boundary",
        "wikidata": "Q12396274",
        "wikipedia": "gl:Oeste, Catoira"
      },
      "geometry": {
        "type": "Polygon",
        "coordinates": [
          [
            [
              -8.7257879,
              42.6876912
            ],
            [
              -8.725806,
              42.687678
            ],
            [
              -8.72598,
              42.687421
            ],
            [
              -8.7272543,
              42.6872682
            ],
            [
              -8.727548,
              42.686912
            ],
            [
              -8.727898,
              42.686656
            ],
            [
              -8.728246,
              42.6864
            ],
            [
              -8.7285411,
              42.6853378
            ],
            [
              -8.728255,
              42.684347
            ],
            [
              -8.727912,
              42.683319
            ],
            [
              -8.727566,
              42.682805
            ],
            [
              -8.7272515,
              42.6821187
            ],
            [
              -8.7272515,
              42.6820379
            ],
            [
              -8.7271978,
              42.6819511
            ],
            [
              -8.7271496,
              42.6818929
            ],
            [
              -8.727175,
              42.6818348
            ],
            [
              -8.727218,
              42.6817175
            ],
            [
              -8.7272273,
              42.6816396
            ],
            [
              -8.7271858,
              42.6815725
            ],
            [
              -8.727222,
              42.6815696
            ],
            [
              -8.7271938,
              42.6815203
            ],
            [
              -8.7271268,
              42.6814582
            ],
            [
              -8.7270222,
              42.6814296
            ],
            [
              -8.7269792,
              42.6813803
            ],
            [
              -8.7268934,
              42.6812955
            ],
            [
              -8.7268277,
              42.6812758
            ],
            [
              -8.7266104,
              42.6812393
            ],
            [
              -8.7263771,
              42.6811742
            ],
            [
              -8.7261773,
              42.6811289
            ],
            [
              -8.726184,
              42.6811092
            ],
            [
              -8.7261987,
              42.6810451
            ],
            [
              -8.7261571,
              42.6809494
            ],
            [
              -8.7260646,
              42.6808932
            ],
            [
              -8.7259895,
              42.6808647
            ],
            [
              -8.725905,
              42.6808745
            ],
            [
              -8.7258701,
              42.6809445
            ],
            [
              -8.7258581,
              42.6810293
            ],
            [
              -8.7258232,
              42.6810766
            ],
            [
              -8.7257199,
              42.6811131
            ],
            [
              -8.7256355,
              42.6810973
            ],
            [
              -8.725496,
              42.6810875
            ],
            [
              -8.7254034,
              42.6810737
            ],
            [
              -8.7253605,
              42.6810362
            ],
            [
              -8.7253578,
              42.6809721
            ],
            [
              -8.7253364,
              42.6809416
            ],
            [
              -8.7252586,
              42.6809287
            ],
            [
              -8.7251647,
              42.6808952
            ],
            [
              -8.7251527,
              42.6807473
            ],
            [
              -8.725099,
              42.6806892
            ],
            [
              -8.7249703,
              42.6806409
            ],
            [
              -8.7249704,
              42.6806396
            ],
            [
              -8.7246685,
              42.680421
            ],
            [
              -8.7245974,
              42.6803697
            ],
            [
              -8.7244177,
              42.6803293
            ],
            [
              -8.7242568,
              42.6802918
            ],
            [
              -8.7241924,
              42.6802356
            ],
            [
              -8.7241562,
              42.680144
            ],
            [
              -8.7239577,
              42.6798935
            ],
            [
              -8.7238639,
              42.679858
            ],
            [
              -8.7238437,
              42.6798018
            ],
            [
              -8.7238773,
              42.6797525
            ],
            [
              -8.723947,
              42.679719
            ],
            [
              -8.7239698,
              42.6796747
            ],
            [
              -8.7239376,
              42.6795978
            ],
            [
              -8.7239001,
              42.6794864
            ],
            [
              -8.7238437,
              42.6793986
            ],
            [
              -8.7238022,
              42.6792892
            ],
            [
              -8.723756,
              42.679203
            ],
            [
              -8.7237016,
              42.6791758
            ],
            [
              -8.7236949,
              42.6791432
            ],
            [
              -8.7237043,
              42.6791107
            ],
            [
              -8.7237606,
              42.6790673
            ],
            [
              -8.7237432,
              42.6789628
            ],
            [
              -8.7237083,
              42.6788307
            ],
            [
              -8.7237043,
              42.6787025
            ],
            [
              -8.7237297,
              42.6786266
            ],
            [
              -8.723715,
              42.6785645
            ],
            [
              -8.7237673,
              42.6785093
            ],
            [
              -8.7238048,
              42.67818
            ],
            [
              -8.7238491,
              42.6781376
            ],
            [
              -8.7239363,
              42.6779867
            ],
            [
              -8.7240597,
              42.6777748
            ],
            [
              -8.7241133,
              42.6777472
            ],
            [
              -8.7241267,
              42.677686
            ],
            [
              -8.7241374,
              42.677616
            ],
            [
              -8.7241133,
              42.6775529
            ],
            [
              -8.7241227,
              42.6775036
            ],
            [
              -8.7241616,
              42.6774859
            ],
            [
              -8.7241924,
              42.6774898
            ],
            [
              -8.7242863,
              42.6775135
            ],
            [
              -8.7243453,
              42.6774849
            ],
            [
              -8.7244191,
              42.6774464
            ],
            [
              -8.724922,
              42.6772798
            ],
            [
              -8.7249864,
              42.6772473
            ],
            [
              -8.7249904,
              42.6772108
            ],
            [
              -8.7251138,
              42.6771694
            ],
            [
              -8.7252546,
              42.6771497
            ],
            [
              -8.7253847,
              42.6771566
            ],
            [
              -8.7254678,
              42.6771674
            ],
            [
              -8.725492,
              42.677194
            ],
            [
              -8.7257025,
              42.6771073
            ],
            [
              -8.7257917,
              42.6770181
            ],
            [
              -8.7258473,
              42.6769436
            ],
            [
              -8.7259841,
              42.6769554
            ],
            [
              -8.7259868,
              42.676913
            ],
            [
              -8.726015,
              42.6768519
            ],
            [
              -8.7260713,
              42.6768144
            ],
            [
              -8.726125,
              42.6767898
            ],
            [
              -8.7261598,
              42.676776
            ],
            [
              -8.726192,
              42.6767385
            ],
            [
              -8.7262215,
              42.676708
            ],
            [
              -8.7262269,
              42.6766636
            ],
            [
              -8.7262068,
              42.6766113
            ],
            [
              -8.7262135,
              42.6765739
            ],
            [
              -8.726239,
              42.6765364
            ],
            [
              -8.7262081,
              42.6764871
            ],
            [
              -8.7261934,
              42.6764358
            ],
            [
              -8.7261571,
              42.6763698
            ],
            [
              -8.7261297,
              42.6763553
            ],
            [
              -8.7261052,
              42.6763423
            ],
            [
              -8.7259976,
              42.6762446
            ],
            [
              -8.7258956,
              42.6760582
            ],
            [
              -8.7258661,
              42.6758659
            ],
            [
              -8.725838,
              42.6753641
            ],
            [
              -8.7258192,
              42.6751176
            ],
            [
              -8.7257709,
              42.6747143
            ],
            [
              -8.7258172,
              42.6746047
            ],
            [
              -8.7259403,
              42.6743134
            ],
            [
              -8.726215,
              42.673562
            ],
            [
              -8.72639,
              42.673306
            ],
            [
              -8.7275577,
              42.6727921
            ],
            [
              -8.727783,
              42.672924
            ],
            [
              -8.728131,
              42.672797
            ],
            [
              -8.7282304,
              42.6726781
            ],
            [
              -8.728829,
              42.672285
            ],
            [
              -8.729006,
              42.671772
            ],
            [
              -8.7296945,
              42.6707637
            ],
            [
              -8.729792,
              42.6706209
            ],
            [
              -8.7288784,
              42.6703617
            ],
            [
              -8.7289143,
              42.6702953
            ],
            [
              -8.7287479,
              42.6702233
            ],
            [
              -8.7283986,
              42.6700582
            ],
            [
              -8.7279302,
              42.6695359
            ],
            [
              -8.7263807,
              42.6690931
            ],
            [
              -8.7245324,
              42.6689789
            ],
            [
              -8.7233418,
              42.6690858
            ],
            [
              -8.7222992,
              42.6693656
            ],
            [
              -8.721982,
              42.6696474
            ],
            [
              -8.7216762,
              42.6698087
            ],
            [
              -8.7201437,
              42.671372
            ],
            [
              -8.718424,
              42.6711426
            ],
            [
              -8.717321,
              42.6712882
            ],
            [
              -8.7157702,
              42.6713627
            ],
            [
              -8.712638,
              42.6709348
            ],
            [
              -8.7122567,
              42.6715246
            ],
            [
              -8.7117794,
              42.672263
            ],
            [
              -8.7097887,
              42.6718747
            ],
            [
              -8.708588,
              42.671591
            ],
            [
              -8.707007,
              42.6716208
            ],
            [
              -8.7059052,
              42.672066
            ],
            [
              -8.7047113,
              42.6726039
            ],
            [
              -8.7034359,
              42.673429
            ],
            [
              -8.7029482,
              42.674814
            ],
            [
              -8.7033191,
              42.6763112
            ],
            [
              -8.7033165,
              42.6767071
            ],
            [
              -8.7033058,
              42.678327
            ],
            [
              -8.7028113,
              42.6796405
            ],
            [
              -8.7022464,
              42.6803685
            ],
            [
              -8.7016709,
              42.6807453
            ],
            [
              -8.7005703,
              42.6811837
            ],
            [
              -8.6993246,
              42.6813245
            ],
            [
              -8.6989954,
              42.6812426
            ],
            [
              -8.6987369,
              42.6816922
            ],
            [
              -8.6980012,
              42.6823927
            ],
            [
              -8.697634,
              42.6826079
            ],
            [
              -8.6968865,
              42.6832093
            ],
            [
              -8.6957595,
              42.6840348
            ],
            [
              -8.6956343,
              42.6846739
            ],
            [
              -8.6954355,
              42.6853938
            ],
            [
              -8.694944,
              42.6860499
            ],
            [
              -8.6942094,
              42.6864892
            ],
            [
              -8.6935854,
              42.6867757
            ],
            [
              -8.693047,
              42.6870445
            ],
            [
              -8.6927039,
              42.6873047
            ],
            [
              -8.6931398,
              42.6882994
            ],
            [
              -8.6956942,
              42.6885529
            ],
            [
              -8.7001799,
              42.6896974
            ],
            [
              -8.7060977,
              42.690356
            ],
            [
              -8.7109831,
              42.6894726
            ],
            [
              -8.7167543,
              42.6881395
            ],
            [
              -8.7218444,
              42.6873623
            ],
            [
              -8.7246868,
              42.6873549
            ],
            [
              -8.7251818,
              42.6874291
            ],
            [
              -8.7257661,
              42.6876788
            ],
            [
              -8.7257879,
              42.6876912
            ]
          ]
        ]
      },
      "id": "relation/12656121"
    }
  ]
}